CCSDS_OMM_VERS = 2.0
CREATION_DATE  = 
ORIGINATOR     = 

OBJECT_NAME    = KSLV-II R/B
OBJECT_ID      = 2025-274P
CENTER_NAME    = EARTH
REF_FRAME      = TEME
TIME_SYSTEM    = UTC
MEAN_ELEMENT_THEORY = SGP/SGP4

EPOCH          = 2025-12-15T07:08:48.551424
MEAN_MOTION    = 14.97331425
ECCENTRICITY   = .00530659
INCLINATION    = 97.7410
RA_OF_ASC_NODE = 276.6145
ARG_OF_PERICENTER = 310.9589
MEAN_ANOMALY   = 48.7046

EPHEMERIS_TYPE = 0
CLASSIFICATION_TYPE = U
NORAD_CAT_ID   = 66663
ELEMENT_SET_NO = 999
REV_AT_EPOCH   = 279
BSTAR          = .35715479E-3
MEAN_MOTION_DOT = .4203E-4
MEAN_MOTION_DDOT = 0

CCSDS_OMM_VERS = 2.0
CREATION_DATE  = 
ORIGINATOR     = 

OBJECT_NAME    = SOYUZ-MS 28
OBJECT_ID      = 2025-275A
CENTER_NAME    = EARTH
REF_FRAME      = TEME
TIME_SYSTEM    = UTC
MEAN_ELEMENT_THEORY = SGP/SGP4

EPOCH          = 2025-12-15T05:59:35.690496
MEAN_MOTION    = 15.49601155
ECCENTRICITY   = .00031934
INCLINATION    = 51.6306
RA_OF_ASC_NODE = 130.0501
ARG_OF_PERICENTER = 251.9008
MEAN_ANOMALY   = 108.1633

EPHEMERIS_TYPE = 0
CLASSIFICATION_TYPE = U
NORAD_CAT_ID   = 66664
ELEMENT_SET_NO = 999
REV_AT_EPOCH   = 128
BSTAR          = .13467464E-3
MEAN_MOTION_DOT = .7132E-4
MEAN_MOTION_DDOT = 0

CCSDS_OMM_VERS = 2.0
CREATION_DATE  = 
ORIGINATOR     = 

OBJECT_NAME    = STARLINK-35867
OBJECT_ID      = 2025-278A
CENTER_NAME    = EARTH
REF_FRAME      = TEME
TIME_SYSTEM    = UTC
MEAN_ELEMENT_THEORY = SGP/SGP4

EPOCH          = 2025-12-15T08:00:01.999872
MEAN_MOTION    = 15.80271932
ECCENTRICITY   = .0001803
INCLINATION    = 42.9975
RA_OF_ASC_NODE = 236.2046
ARG_OF_PERICENTER = 281.7618
MEAN_ANOMALY   = 146.5670

EPHEMERIS_TYPE = 0
CLASSIFICATION_TYPE = U
NORAD_CAT_ID   = 66791
ELEMENT_SET_NO = 999
REV_AT_EPOCH   = 337
BSTAR          = -.72707658E-2
MEAN_MOTION_DOT = -.1248579E-1
MEAN_MOTION_DDOT = 0

CCSDS_OMM_VERS = 2.0
CREATION_DATE  = 
ORIGINATOR     = 

OBJECT_NAME    = STARLINK-35990
OBJECT_ID      = 2025-278B
CENTER_NAME    = EARTH
REF_FRAME      = TEME
TIME_SYSTEM    = UTC
MEAN_ELEMENT_THEORY = SGP/SGP4

EPOCH          = 2025-12-15T08:00:01.999872
MEAN_MOTION    = 15.80291225
ECCENTRICITY   = .00018323
INCLINATION    = 42.9971
RA_OF_ASC_NODE = 236.2001
ARG_OF_PERICENTER = 276.4828
MEAN_ANOMALY   = 153.7044

EPHEMERIS_TYPE = 0
CLASSIFICATION_TYPE = U
NORAD_CAT_ID   = 66792
ELEMENT_SET_NO = 999
REV_AT_EPOCH   = 337
BSTAR          = -.7342736E-2
MEAN_MOTION_DOT = -.1260497E-1
MEAN_MOTION_DDOT = 0

CCSDS_OMM_VERS = 2.0
CREATION_DATE  = 
ORIGINATOR     = 

OBJECT_NAME    = STARLINK-36051
OBJECT_ID      = 2025-278C
CENTER_NAME    = EARTH
REF_FRAME      = TEME
TIME_SYSTEM    = UTC
MEAN_ELEMENT_THEORY = SGP/SGP4

EPOCH          = 2025-12-15T08:00:01.999872
MEAN_MOTION    = 15.80189064
ECCENTRICITY   = .0001863
INCLINATION    = 43.0001
RA_OF_ASC_NODE = 236.1880
ARG_OF_PERICENTER = 273.0023
MEAN_ANOMALY   = 162.0111

EPHEMERIS_TYPE = 0
CLASSIFICATION_TYPE = U
NORAD_CAT_ID   = 66793
ELEMENT_SET_NO = 999
REV_AT_EPOCH   = 327
BSTAR          = -.74966626E-2
MEAN_MOTION_DOT = -.1278402E-1
MEAN_MOTION_DDOT = 0

CCSDS_OMM_VERS = 2.0
CREATION_DATE  = 
ORIGINATOR     = 

OBJECT_NAME    = STARLINK-36062
OBJECT_ID      = 2025-278D
CENTER_NAME    = EARTH
REF_FRAME      = TEME
TIME_SYSTEM    = UTC
MEAN_ELEMENT_THEORY = SGP/SGP4

EPOCH          = 2025-12-15T08:00:01.999872
MEAN_MOTION    = 15.80142838
ECCENTRICITY   = .00018001
INCLINATION    = 42.9975
RA_OF_ASC_NODE = 236.1932
ARG_OF_PERICENTER = 283.7554
MEAN_ANOMALY   = 149.1037

EPHEMERIS_TYPE = 0
CLASSIFICATION_TYPE = U
NORAD_CAT_ID   = 66794
ELEMENT_SET_NO = 999
REV_AT_EPOCH   = 337
BSTAR          = -.69518745E-2
MEAN_MOTION_DOT = -.1193564E-1
MEAN_MOTION_DDOT = 0

CCSDS_OMM_VERS = 2.0
CREATION_DATE  = 
ORIGINATOR     = 

OBJECT_NAME    = STARLINK-36047
OBJECT_ID      = 2025-278E
CENTER_NAME    = EARTH
REF_FRAME      = TEME
TIME_SYSTEM    = UTC
MEAN_ELEMENT_THEORY = SGP/SGP4

EPOCH          = 2025-12-15T08:00:01.999872
MEAN_MOTION    = 15.80125032
ECCENTRICITY   = .00019555
INCLINATION    = 43.0001
RA_OF_ASC_NODE = 236.1817
ARG_OF_PERICENTER = 279.0155
MEAN_ANOMALY   = 158.4811

EPHEMERIS_TYPE = 0
CLASSIFICATION_TYPE = U
NORAD_CAT_ID   = 66795
ELEMENT_SET_NO = 999
REV_AT_EPOCH   = 327
BSTAR          = -.75566845E-2
MEAN_MOTION_DOT = -.1284096E-1
MEAN_MOTION_DDOT = 0

CCSDS_OMM_VERS = 2.0
CREATION_DATE  = 
ORIGINATOR     = 

OBJECT_NAME    = STARLINK-35964
OBJECT_ID      = 2025-278F
CENTER_NAME    = EARTH
REF_FRAME      = TEME
TIME_SYSTEM    = UTC
MEAN_ELEMENT_THEORY = SGP/SGP4

EPOCH          = 2025-12-15T08:00:01.999872
MEAN_MOTION    = 15.89788163
ECCENTRICITY   = .00014656
INCLINATION    = 42.9941
RA_OF_ASC_NODE = 235.1006
ARG_OF_PERICENTER = 267.3553
MEAN_ANOMALY   = 235.6664

EPHEMERIS_TYPE = 0
CLASSIFICATION_TYPE = U
NORAD_CAT_ID   = 66796
ELEMENT_SET_NO = 999
REV_AT_EPOCH   = 321
BSTAR          = -.84494917E-2
MEAN_MOTION_DOT = -.222355E-1
MEAN_MOTION_DDOT = 0

CCSDS_OMM_VERS = 2.0
CREATION_DATE  = 
ORIGINATOR     = 

OBJECT_NAME    = STARLINK-36099
OBJECT_ID      = 2025-278G
CENTER_NAME    = EARTH
REF_FRAME      = TEME
TIME_SYSTEM    = UTC
MEAN_ELEMENT_THEORY = SGP/SGP4

EPOCH          = 2025-12-15T08:00:01.999872
MEAN_MOTION    = 15.79993824
ECCENTRICITY   = .00017705
INCLINATION    = 42.9974
RA_OF_ASC_NODE = 236.1690
ARG_OF_PERICENTER = 278.0002
MEAN_ANOMALY   = 164.4788

EPHEMERIS_TYPE = 0
CLASSIFICATION_TYPE = U
NORAD_CAT_ID   = 66797
ELEMENT_SET_NO = 999
REV_AT_EPOCH   = 343
BSTAR          = -.77187071E-2
MEAN_MOTION_DOT = -.1301146E-1
MEAN_MOTION_DDOT = 0

CCSDS_OMM_VERS = 2.0
CREATION_DATE  = 
ORIGINATOR     = 

OBJECT_NAME    = STARLINK-36041
OBJECT_ID      = 2025-278H
CENTER_NAME    = EARTH
REF_FRAME      = TEME
TIME_SYSTEM    = UTC
MEAN_ELEMENT_THEORY = SGP/SGP4

EPOCH          = 2025-12-15T08:00:01.999872
MEAN_MOTION    = 15.79973735
ECCENTRICITY   = .00018362
INCLINATION    = 42.9978
RA_OF_ASC_NODE = 236.1638
ARG_OF_PERICENTER = 278.1033
MEAN_ANOMALY   = 166.4732

EPHEMERIS_TYPE = 0
CLASSIFICATION_TYPE = U
NORAD_CAT_ID   = 66798
ELEMENT_SET_NO = 999
REV_AT_EPOCH   = 321
BSTAR          = -.7708762E-2
MEAN_MOTION_DOT = -.1298656E-1
MEAN_MOTION_DDOT = 0

CCSDS_OMM_VERS = 2.0
CREATION_DATE  = 
ORIGINATOR     = 

OBJECT_NAME    = STARLINK-36044
OBJECT_ID      = 2025-278J
CENTER_NAME    = EARTH
REF_FRAME      = TEME
TIME_SYSTEM    = UTC
MEAN_ELEMENT_THEORY = SGP/SGP4

EPOCH          = 2025-12-15T08:00:01.999872
MEAN_MOTION    = 15.79945563
ECCENTRICITY   = .00017031
INCLINATION    = 42.9974
RA_OF_ASC_NODE = 236.1581
ARG_OF_PERICENTER = 272.3349
MEAN_ANOMALY   = 174.4757

EPHEMERIS_TYPE = 0
CLASSIFICATION_TYPE = U
NORAD_CAT_ID   = 66799
ELEMENT_SET_NO = 999
REV_AT_EPOCH   = 337
BSTAR          = -.78275294E-2
MEAN_MOTION_DOT = -.1339268E-1
MEAN_MOTION_DDOT = 0

CCSDS_OMM_VERS = 2.0
CREATION_DATE  = 
ORIGINATOR     = 

OBJECT_NAME    = STARLINK-35996
OBJECT_ID      = 2025-278K
CENTER_NAME    = EARTH
REF_FRAME      = TEME
TIME_SYSTEM    = UTC
MEAN_ELEMENT_THEORY = SGP/SGP4

EPOCH          = 2025-12-15T08:00:01.999872
MEAN_MOTION    = 15.79877324
ECCENTRICITY   = .00017733
INCLINATION    = 42.9975
RA_OF_ASC_NODE = 236.1466
ARG_OF_PERICENTER = 278.1483
MEAN_ANOMALY   = 173.1131

EPHEMERIS_TYPE = 0
CLASSIFICATION_TYPE = U
NORAD_CAT_ID   = 66800
ELEMENT_SET_NO = 999
REV_AT_EPOCH   = 316
BSTAR          = -.7923717E-2
MEAN_MOTION_DOT = -.13502E-1
MEAN_MOTION_DDOT = 0

