KSLV-II R/B             
1 66663U 25274P   25349.29778416  .00004203  00000+0  35715-3 0  9996
2 66663  97.7410 276.6145 0053065 310.9589  48.7046 14.97331425  2798
SOYUZ-MS 28             
1 66664U 25275A   25349.24971864  .00007132  00000+0  13467-3 0  9999
2 66664  51.6306 130.0501 0003193 251.9008 108.1633 15.49601155  1282
STARLINK-35867          
1 66791U 25278A   25349.33335648 -.01248579  00000+0 -72708-2 0  9994
2 66791  42.9975 236.2046 0001803 281.7618 146.5670 15.80271932  3375
STARLINK-35990          
1 66792U 25278B   25349.33335648 -.01260497  00000+0 -73427-2 0  9997
2 66792  42.9971 236.2001 0001832 276.4828 153.7044 15.80291225  3371
STARLINK-36051          
1 66793U 25278C   25349.33335648 -.01278402  00000+0 -74967-2 0  9993
2 66793  43.0001 236.1880 0001863 273.0023 162.0111 15.80189064  3270
STARLINK-36062          
1 66794U 25278D   25349.33335648 -.01193564  00000+0 -69519-2 0  9996
2 66794  42.9975 236.1932 0001800 283.7554 149.1037 15.80142838  3377
STARLINK-36047          
1 66795U 25278E   25349.33335648 -.01284096  00000+0 -75567-2 0  9998
2 66795  43.0001 236.1817 0001955 279.0155 158.4811 15.80125032  3277
STARLINK-35964          
1 66796U 25278F   25349.33335648 -.02223550  00000+0 -84495-2 0  9998
2 66796  42.9941 235.1006 0001465 267.3553 235.6664 15.89788163  3213
STARLINK-36099          
1 66797U 25278G   25349.33335648 -.01301146  00000+0 -77187-2 0  9996
2 66797  42.9974 236.1690 0001770 278.0002 164.4788 15.79993824  3438
STARLINK-36041          
1 66798U 25278H   25349.33335648 -.01298656  00000+0 -77088-2 0  9998
2 66798  42.9978 236.1638 0001836 278.1033 166.4732 15.79973735  3219
STARLINK-36044          
1 66799U 25278J   25349.33335648 -.01339268  00000+0 -78275-2 0  9993
2 66799  42.9974 236.1581 0001703 272.3349 174.4757 15.79945563  3373
STARLINK-35996          
1 66800U 25278K   25349.33335648 -.01350200  00000+0 -79237-2 0  9994
2 66800  42.9975 236.1466 0001773 278.1483 173.1131 15.79877324  3167
